P/2020 B4 (Sheppard),e,11.6091,185.9788,342.0622,7.966662,0.0438318,0.19183584,25.8977,07/03.0/2023,2000,g 10.5,4.0
# From MPEC 2023-N01
C/2020 F2 (ATLAS),h,07/14.7921/2022,163.5885,250.2915,48.3247,1.005339,8.816508,2000,4.5,4.0
# From MPEC 2021-O56
C/2020 F3 (NEOWISE),e,129.1253,61.0812,37.3681,360.9901,0.0001437,0.99918073,0.0000,07/03.7617/2020,2000,g  7.5,5.2
# From MPEC 2023-C45
C/2020 F5 (MASTER),e,52.2058,350.4999,310.6803,176.3221,0.0004210,0.97547237,0.0000,03/17.4933/2021,2000,g  6.5,3.2
# From MPEC 2020-L06
C/2020 F6 (PANSTARRS),e,174.5830,207.9072,344.5408,398.3036,0.0001240,0.99120025,0.0000,04/11.6821/2020,2000,g 14.5,2.8
# From MPEC 2023-J95
C/2020 F7 (Lemmon),e,93.9514,321.8682,227.9496,578.0814,0.0000709,0.99077611,0.0000,11/13.7196/2021,2000,g  7.0,4.0
# From MPEC 2023-J29
C/2020 F8 (SWAN),h,05/27.2587/2020,110.6315,259.8883,68.0869,1.000195,0.429497,2000,10.0,4.0
# From MPEC 2020-L06
P/2020 G1 (Pimentel),e,18.5120,240.1292,207.5915,3.608263,0.1437993,0.86042096,172.8931,07/03.0/2023,2000,g 17.0,4.0
# From MPEC 2022-YB4
C/2020 H2 (Pruyne),e,124.9032,277.6661,26.6631,189.1701,0.0003788,0.99560648,0.0000,04/27.8207/2020,2000,g 14.0,3.2
# From MPEC 2020-HM1
C/2020 H3 (Wierzchos),p,06/05.7162/2020,62.5292,30.4456,2.300288,270.6227,2000,13.5,4.0
# From MPEC 2020-L06
C/2020 H4 (Leonard),e,84.4960,307.6365,117.5424,47.84471,0.0029782,0.98067748,0.0000,08/29.6440/2020,2000,g 15.0,3.2
# From MPEC 2023-N01
C/2020 H5 (Robinson),e,70.2557,210.6276,326.3341,3946,0.0000040,0.99763248,0.0000,12/10.7144/2020,2000,g  5.0,4.0
# From MPEC 2023-N01
C/2020 H6 (ATLAS),e,79.9778,213.7200,20.2987,7683,0.0000015,0.99938801,0.0000,09/30.6428/2021,2000,g  8.0,3.2
# From MPEC 2020-KB7
C/2020 H7 (Lemmon),e,135.9235,323.5194,82.6780,1405,0.0000187,0.99685380,0.0000,06/02.9510/2020,2000,g 11.0,4.0
# From MPEC 2021-N06
C/2020 H8 (PANSTARRS),e,99.6912,68.4289,128.9345,598.0798,0.0000674,0.99218411,0.0000,06/04.5149/2020,2000,g 10.5,4.0
# From MPEC 2022-ED3
A/2020 H9,e,137.8792,213.1827,312.8260,370.4202,0.0001382,0.99305322,0.0000,12/21.6777/2019,2000,g 18.0,2.0
# From MPEC 2023-HN7
C/2020 H11 (PANSTARRS-Lemmon),h,09/15.0871/2020,151.4002,303.0358,91.4688,1.002195,7.627239,2000,8.5,4.0
# From MPEC 2023-KD6
C/2020 J1 (SONEAR),h,04/18.6248/2021,142.3054,226.6060,341.7376,1.000753,3.352937,2000,8.5,3.2
# From MPEC 2023-N01
C/2020 K1 (PANSTARRS),e,89.6715,94.3561,213.9854,86361,0.0000000,0.99996441,0.0000,05/09.0881/2023,2000,g  5.5,4.0
# From MPEC 2021-N06
C/2020 K2 (PANSTARRS),h,08/06.3558/2020,91.0258,288.3979,67.3516,1.003853,8.879976,2000,10.8,4.0
# From MPEC 2020-KF9
C/2020 K3 (Leonard),p,06/01.0032/2020,129.0152,64.4924,1.583069,28.3546,2000,14.5,4.0
# From MPEC 2020-L06
C/2020 K4 (PANSTARRS),e,125.5836,264.2035,308.8641,23.96603,0.0084006,0.92683711,10.2151,07/03.0/2023,2000,g 16.5,4.0
# From MPEC 2021-R75
C/2020 K5 (PANSTARRS),h,06/05.4319/2021,67.1110,86.1606,249.6138,1.001347,1.536925,2000,11.0,4.0
# From MPEC 2023-N01
C/2020 K6 (Rankin),h,09/15.8327/2021,103.6492,291.5569,44.3375,1.003662,5.868861,2000,8.0,4.0
# From MPEC 2023-A50
C/2020 K7 (PANSTARRS),e,32.0423,286.0831,358.2509,98.36397,0.0010103,0.93499670,1.3578,07/03.0/2023,2000,g  8.0,4.0
# From MPEC 2021-P47
C/2020 K8 (Catalina-ATLAS),h,09/14.8958/2020,31.4239,181.5306,259.9594,1.000191,0.471772,2000,15.0,3.2
# From MPEC 2021-BE3
P/2020 K9 (Lemmon-PANSTARRS),e,23.2075,166.2449,197.0727,4.203184,0.1143764,0.32122510,99.5743,07/03.0/2023,2000,g 12.5,4.0
# From MPEC 2023-C45
P/2020 M1 (PANSTARRS),e,8.5362,142.6195,72.6538,5.317122,0.0803876,0.47351973,103.3325,07/03.0/2023,2000,g 14.5,4.0
# From MPEC 2022-H30
C/2020 M3 (ATLAS),e,23.4781,71.1525,328.5720,27.11685,0.0069798,0.95321521,6.8409,07/03.0/2023,2000,g 14.5,4.0
# From MPEC 2023-N01
A/2020 M4,h,11/24.1527/2020,160.1246,348.6232,104.6301,1.001064,5.950384,2000,14.5,2.0
# From MPC xxxxx
P/2020 MK4 (PANSTARRS),e,6.7963,0.7148,100.6399,6.207748,0.0637240,0.01206492,264.5672,07/03.0/2023,2000,g  8.0,4.0
# From MPEC 2023-FK0
C/2020 M5 (ATLAS),h,08/19.8574/2021,93.2175,352.0885,126.2991,1.000387,3.002552,2000,9.0,4.0
# From MPEC 2022-GA9
C/2020 N1 (PANSTARRS),h,03/12.3822/2021,29.7292,279.9208,186.7621,1.000480,1.318322,2000,12.5,4.0
# From MPEC 2021-P47
C/2020 N2 (ATLAS),e,161.0333,257.1663,331.3152,104.5939,0.0009214,0.98286450,0.0000,08/24.1370/2020,2000,g 16.0,3.2
# From MPEC 2023-N01
C/2020 O2 (Amaral),h,08/28.4738/2021,71.7609,256.7752,10.3000,1.001488,4.862353,2000,8.0,3.2
# From MPEC 2023-C45
P/2020 O3 (PANSTARRS),e,8.4445,266.8185,81.6134,4.647488,0.0983732,0.10304824,86.9702,07/03.0/2023,2000,g 12.0,4.0
# From MPEC 2021-BE3
C/2020 P1 (NEOWISE),h,10/20.4772/2020,45.1828,53.4832,8.8915,1.000325,0.340936,2000,14.0,3.2
# From MPEC 2023-N01
C/2020 P3 (ATLAS),h,04/21.4530/2021,61.8892,19.4657,82.2794,1.001651,6.812631,2000,6.0,4.0
# From MPEC 2022-PB4
C/2020 PV6 (PANSTARRS),e,128.2235,329.1490,71.3808,42.06877,0.0036121,0.94545062,2.3295,07/03.0/2023,2000,g 10.0,4.0
# From MPEC 2022-L66
C/2020 Q1 (Borisov),e,142.9455,52.3858,9.9630,60.98172,0.0020697,0.97838170,0.0000,08/14.4152/2020,2000,g 14.0,4.0
# From MPEC 2023-CD7
C/2020 Q2 (PANSTARRS),e,3.3362,179.8280,118.2682,10.64175,0.0283912,0.49168994,35.5043,07/03.0/2023,2000,g 12.0,3.2
# From MPEC 2022-X67
C/2020 R2 (PANSTARRS),e,53.2282,195.0934,211.8005,411.3596,0.0001181,0.98859124,0.0000,02/24.9464/2022,2000,g  9.0,4.0
# From MPEC 2022-K19
C/2020 R4 (ATLAS),e,164.4493,323.2712,46.6786,99.78868,0.0009887,0.98971250,0.0000,03/02.2027/2021,2000,g 13.5,4.0
# From MPEC 2023-C45
P/2020 R5 (PANSTARRS),e,11.4443,272.9666,82.6388,4.987934,0.0884755,0.31442200,99.9355,07/03.0/2023,2000,g  9.5,6.0
# From MPEC 2021-Y10
C/2020 R6 (Rankin),e,82.8137,12.1790,271.9923,312.3436,0.0001785,0.98996465,0.0000,09/08.3855/2019,2000,g 11.0,4.0
# From MPEC 2023-N01
C/2020 R7 (ATLAS),h,09/16.2521/2022,114.8974,268.2856,347.8417,1.000248,2.955974,2000,7.0,3.2
# From MPEC 2021-BE3
P/2020 S1 (PANSTARRS),e,13.7271,129.4612,255.0431,5.993870,0.0671650,0.50772590,60.2081,07/03.0/2023,2000,g 14.0,4.0
# From MPEC 2022-ST7
C/2020 S2 (PANSTARRS),e,22.4044,197.6625,202.3521,10.22531,0.0301432,0.82815326,27.8153,07/03.0/2023,2000,g 17.0,4.0
# From MPEC 2022-C56
C/2020 S3 (Erasmus),e,20.0183,222.5964,350.0916,150.9499,0.0005314,0.99737592,0.0000,12/11.9553/2020,2000,g 13.5,3.2
# From MPEC 2023-N01
C/2020 S4 (PANSTARRS),h,02/09.2383/2023,20.5686,117.7191,20.9925,1.001401,3.369750,2000,8.5,3.2
# From MPEC 2021-BE3
P/2020 S5 (PANSTARRS),e,12.3463,315.9974,53.2386,4.054662,0.1207180,0.33842204,127.7048,07/03.0/2023,2000,g 14.5,4.0
# From MPEC 2021-BE3
P/2020 S7 (PANSTARRS),e,16.0860,328.0300,40.6018,5.031271,0.0873348,0.41062866,83.5123,07/03.0/2023,2000,g 14.5,4.0
# From MPEC 2021-P47
C/2020 S8 (Lemmon),e,108.5274,24.0685,160.2656,261.0969,0.0002336,0.99095720,0.0000,04/10.8053/2021,2000,g 12.5,4.0
# From MPEC 2022-ST7
C/2020 T2 (Palomar),e,27.8550,82.9654,150.5192,301.5524,0.0001882,0.99317707,0.0000,07/10.9522/2021,2000,g 11.0,3.2
# From MPEC 2021-N06
P/2020 T3 (PANSTARRS),e,7.2995,73.9873,357.0420,3.516911,0.1494383,0.59215773,133.4678,07/03.0/2023,2000,g 18.0,3.2
# From MPEC 2021-N06
C/2020 T4 (PANSTARRS),h,07/05.3646/2021,83.8433,50.6157,79.6052,1.000289,2.191232,2000,13.0,3.2
# From MPEC 2021-BE3
C/2020 T5 (Lemmon),e,66.5562,237.8389,90.3399,734.9950,0.0000495,0.99742620,0.0000,10/09.2546/2020,2000,g 16.0,4.0
# From MPEC 2021-N06
P/2020 U2 (PANSTARRS),e,6.4193,342.8794,84.6535,3.778022,0.1342169,0.51117724,123.3275,07/03.0/2023,2000,g 18.0,4.0
# From MPEC 2021-W31
C/2020 U3 (Rankin),e,30.1554,282.6341,124.3577,66.64245,0.0018117,0.96582586,1.5884,07/03.0/2023,2000,g 15.0,4.0
# From MPEC 2023-CD7
C/2020 U4 (PANSTARRS),h,04/09.3571/2022,167.0202,120.3373,70.0293,1.000923,5.358070,2000,7.0,4.0
# From MPEC 2023-N01
C/2020 U5 (PANSTARRS),e,97.2749,107.3253,75.4361,3721,0.0000043,0.99899043,0.0000,04/27.9683/2022,2000,g  8.0,4.0
# From MPEC 2023-N01
C/2020 V2 (ZTF),h,05/08.5440/2023,131.6122,212.3714,162.4205,1.001308,2.227807,2000,4.9,4.0
# From MPEC 2023-D72
P/2020 V3 (PANSTARRS),e,23.0330,198.2522,249.3909,8.387229,0.0405767,0.25706640,35.4366,07/03.0/2023,2000,g  8.3,4.0
# From MPEC 2023-KD6
P/2020 V4 (Rankin),e,14.2444,203.4827,257.0441,9.370582,0.0343601,0.45056364,24.5543,07/03.0/2023,2000,g  9.0,4.0
# From MPEC 2021-BE3
P/2020 W1 (Rankin),e,10.7862,124.2726,265.1860,7.215817,0.0508482,0.26633021,60.0053,07/03.0/2023,2000,g 10.0,4.0
# From MPEC 2021-BE3
C/2020 W5 (Lemmon),h,11/30.1335/2020,88.5996,75.4652,24.5062,1.000844,3.365623,2000,15.0,4.0
# From MPEC 2023-N01
P/2020 WJ5 (Lemmon),e,22.2929,177.8079,338.1507,6.015709,0.0667996,0.17138621,48.9190,07/03.0/2023,2000,g  8.5,4.0
# From MPEC 2021-P47
P/2020 X1 (ATLAS),e,31.6933,55.9880,323.4483,4.531265,0.1021821,0.36542029,110.0600,07/03.0/2023,2000,g 13.0,4.0
# From MPEC 2021-U31
C/2020 X2 (ATLAS),e,18.1848,105.4150,347.3831,16.46005,0.0147590,0.76749152,14.1515,07/03.0/2023,2000,g 10.6,4.0
# From MPEC 2021-S45
C/2020 X4 (Leonard),e,80.6085,161.8839,140.3086,40.65062,0.0038028,0.87152331,3.6474,07/03.0/2023,2000,g  9.0,4.0
# From MPEC 2023-N01
C/2020 Y2 (ATLAS),e,101.3007,26.5125,266.2023,1601,0.0000154,0.99804134,0.0000,06/18.0856/2022,2000,g  6.5,4.0
# From MPEC 2021-R75
C/2020 Y3 (ATLAS),e,83.1018,191.4387,341.9427,142.1110,0.0005818,0.98595597,0.0000,12/03.3046/2020,2000,g 13.5,4.0
# From MPEC 2023-CD7
C/2021 A1 (Leonard),h,01/03.2879/2022,132.7163,255.8997,225.1173,1.000028,0.615827,2000,8.5,4.0
# From MPEC 2022-F14
C/2021 A2 (NEOWISE),e,106.9904,125.1895,338.7796,232.0874,0.0002788,0.99391574,0.0000,01/22.3958/2021,2000,g 13.5,4.0
# From MPEC 2022-ED3
C/2021 A4 (NEOWISE),e,111.5383,307.1112,204.7107,42.43974,0.0035649,0.97296007,0.0000,03/19.7164/2021,2000,g 16.0,4.0
# From MPEC 2021-BE3
P/2021 A5 (PANSTARRS),e,18.1830,328.7590,61.3620,3.047699,0.1852447,0.13991210,178.2461,07/03.0/2023,2000,g 15.0,4.0
# From MPEC 2023-M14
